{
  "norad_id": 45676,
  "name": "STARLINK-1460",
  "history": [
    {
      "epoch": "2026-03-28T22:22:23.213568Z",
      "apogee_km": 476.2939879457972,
      "perigee_km": 474.1427197002322,
      "latitude_deg": 3.480460984911942e-05,
      "longitude_deg": 173.62693561220655,
      "height_km": 476.1025503605988,
      "semi_major_axis_km": 6853.355353823014,
      "eccentricity": 0.00015695,
      "inclination_deg": 53.1611,
      "raan_deg": 335.5692,
      "arg_perigee_deg": 89.2769,
      "mean_anomaly_deg": 270.8412,
      "mean_motion_rev_day": 15.301989
    },
    {
      "epoch": "2026-03-29T01:30:29.598048Z",
      "apogee_km": 476.32103506552994,
      "perigee_km": 474.1320707467312,
      "latitude_deg": -5.0835163081463464e-05,
      "longitude_deg": 125.86481555386794,
      "height_km": 476.08901708654656,
      "semi_major_axis_km": 6853.36355290613,
      "eccentricity": 0.0001597,
      "inclination_deg": 53.1611,
      "raan_deg": 334.9625,
      "arg_perigee_deg": 88.1527,
      "mean_anomaly_deg": 271.9656,
      "mean_motion_rev_day": 15.30196154
    },
    {
      "epoch": "2026-03-30T01:01:18.473952Z",
      "apogee_km": 476.3184605927254,
      "perigee_km": 474.204872443971,
      "latitude_deg": 4.61087692918968e-05,
      "longitude_deg": 127.64357042418597,
      "height_km": 476.16892217166776,
      "semi_major_axis_km": 6853.398666518347,
      "eccentricity": 0.0001542,
      "inclination_deg": 53.1614,
      "raan_deg": 330.4105,
      "arg_perigee_deg": 90.5108,
      "mean_anomaly_deg": 269.607,
      "mean_motion_rev_day": 15.30184394
    },
    {
      "epoch": "2026-03-30T08:51:34.039872Z",
      "apogee_km": 476.26003402104743,
      "perigee_km": 474.2200578095599,
      "latitude_deg": -2.237613503079454e-05,
      "longitude_deg": 8.240480636321552,
      "height_km": 476.14365477255956,
      "semi_major_axis_km": 6853.377045915303,
      "eccentricity": 0.00014883,
      "inclination_deg": 53.1612,
      "raan_deg": 328.8942,
      "arg_perigee_deg": 90.3206,
      "mean_anomaly_deg": 269.7965,
      "mean_motion_rev_day": 15.30191635
    },
    {
      "epoch": "2026-03-30T19:49:55.687008Z",
      "apogee_km": 476.2405558601913,
      "perigee_km": 474.1692018107333,
      "latitude_deg": 7.682322892809014e-06,
      "longitude_deg": -158.92492478663038,
      "height_km": 476.1044260579024,
      "semi_major_axis_km": 6853.341878835462,
      "eccentricity": 0.00015112,
      "inclination_deg": 53.1609,
      "raan_deg": 326.7696,
      "arg_perigee_deg": 90.0946,
      "mean_anomaly_deg": 270.0228,
      "mean_motion_rev_day": 15.30203413
    },
    {
      "epoch": "2026-03-31T20:54:47.932704Z",
      "apogee_km": 476.12446907120557,
      "perigee_km": 474.38918975359866,
      "latitude_deg": -1.2885800201976408e-05,
      "longitude_deg": 178.97342347907718,
      "height_km": 476.07407880146314,
      "semi_major_axis_km": 6853.393829412402,
      "eccentricity": 0.0001266,
      "inclination_deg": 53.1622,
      "raan_deg": 321.9157,
      "arg_perigee_deg": 84.6384,
      "mean_anomaly_deg": 275.4761,
      "mean_motion_rev_day": 15.30186014
    },
    {
      "epoch": "2026-03-31T22:28:51.043296Z",
      "apogee_km": 476.1114126520015,
      "perigee_km": 474.3783294444511,
      "latitude_deg": 6.456692753440326e-05,
      "longitude_deg": 155.09284427442276,
      "height_km": 476.0783457620539,
      "semi_major_axis_km": 6853.381871048226,
      "eccentricity": 0.00012644,
      "inclination_deg": 53.1611,
      "raan_deg": 321.6124,
      "arg_perigee_deg": 85.7168,
      "mean_anomaly_deg": 274.3978,
      "mean_motion_rev_day": 15.30190019
    },
    {
      "epoch": "2026-04-02T21:30:25.901568Z",
      "apogee_km": 476.1174319176871,
      "perigee_km": 474.3040361072681,
      "latitude_deg": -2.1415770932511613e-05,
      "longitude_deg": 158.6665358153054,
      "height_km": 476.14018847338974,
      "semi_major_axis_km": 6853.347734012477,
      "eccentricity": 0.0001323,
      "inclination_deg": 53.1617,
      "raan_deg": 312.5127,
      "arg_perigee_deg": 91.9761,
      "mean_anomaly_deg": 268.1391,
      "mean_motion_rev_day": 15.30201452
    },
    {
      "epoch": "2026-04-02T21:30:25.903296Z",
      "apogee_km": 476.11729485073374,
      "perigee_km": 474.30417317422234,
      "latitude_deg": -1.957124572931616e-05,
      "longitude_deg": 158.66652996975606,
      "height_km": 476.14018374695553,
      "semi_major_axis_km": 6853.347734012477,
      "eccentricity": 0.00013228,
      "inclination_deg": 53.1617,
      "raan_deg": 312.5127,
      "arg_perigee_deg": 91.9761,
      "mean_anomaly_deg": 268.1391,
      "mean_motion_rev_day": 15.30201452
    },
    {
      "epoch": "2026-04-03T21:01:14.361888Z",
      "apogee_km": 476.1652161515631,
      "perigee_km": 474.34769620698444,
      "latitude_deg": -9.371633447578125e-06,
      "longitude_deg": 160.44806325590167,
      "height_km": 476.080110713164,
      "semi_major_axis_km": 6853.393456179274,
      "eccentricity": 0.0001326,
      "inclination_deg": 53.1585,
      "raan_deg": 307.9618,
      "arg_perigee_deg": 85.3175,
      "mean_anomaly_deg": 274.7977,
      "mean_motion_rev_day": 15.30186139
    },
    {
      "epoch": "2026-04-04T00:09:20.739456Z",
      "apogee_km": 476.14115189194763,
      "perigee_km": 474.3609158162735,
      "latitude_deg": 1.4272509437653905e-07,
      "longitude_deg": 112.68604294705834,
      "height_km": 476.023042084169,
      "semi_major_axis_km": 6853.38803385411,
      "eccentricity": 0.00012988,
      "inclination_deg": 53.1585,
      "raan_deg": 307.3551,
      "arg_perigee_deg": 81.8699,
      "mean_anomaly_deg": 278.2449,
      "mean_motion_rev_day": 15.30187955
    },
    {
      "epoch": "2026-04-05T13:46:37.144128Z",
      "apogee_km": 476.0860728118241,
      "perigee_km": 474.35683340693504,
      "latitude_deg": -7.415010775711869e-06,
      "longitude_deg": -100.46006620546252,
      "height_km": 476.0103539450464,
      "semi_major_axis_km": 6853.358453109379,
      "eccentricity": 0.00012616,
      "inclination_deg": 53.1591,
      "raan_deg": 300.0724,
      "arg_perigee_deg": 82.7506,
      "mean_anomaly_deg": 277.3638,
      "mean_motion_rev_day": 15.30197862
    },
    {
      "epoch": "2026-04-05T20:02:49.671168Z",
      "apogee_km": 476.0654798450787,
      "perigee_km": 474.30856169911385,
      "latitude_deg": -7.177501606795287e-06,
      "longitude_deg": 164.0165317409348,
      "height_km": 475.9609475502269,
      "semi_major_axis_km": 6853.324020772096,
      "eccentricity": 0.00012818,
      "inclination_deg": 53.1589,
      "raan_deg": 298.8587,
      "arg_perigee_deg": 81.8827,
      "mean_anomaly_deg": 278.2319,
      "mean_motion_rev_day": 15.30209394
    },
    {
      "epoch": "2026-04-07T06:32:01.420224Z",
      "apogee_km": 476.1751550824911,
      "perigee_km": 474.36366270049257,
      "latitude_deg": 5.902470375370029e-05,
      "longitude_deg": -1.3711911212105503,
      "height_km": 475.78990794371794,
      "semi_major_axis_km": 6853.406408891492,
      "eccentricity": 0.00013216,
      "inclination_deg": 53.1604,
      "raan_deg": 292.1862,
      "arg_perigee_deg": 65.3541,
      "mean_anomaly_deg": 294.7598,
      "mean_motion_rev_day": 15.30181801
    },
    {
      "epoch": "2026-04-07T19:04:27.290784Z",
      "apogee_km": 476.1558528824653,
      "perigee_km": 474.36711587804075,
      "latitude_deg": -2.741618366705192e-05,
      "longitude_deg": 167.57762810575343,
      "height_km": 475.9851869345363,
      "semi_major_axis_km": 6853.398484380253,
      "eccentricity": 0.0001305,
      "inclination_deg": 53.16,
      "raan_deg": 289.7579,
      "arg_perigee_deg": 78.758,
      "mean_anomaly_deg": 281.3567,
      "mean_motion_rev_day": 15.30184455
    },
    {
      "epoch": "2026-04-08T06:02:49.630848Z",
      "apogee_km": 476.19786050318,
      "perigee_km": 474.289056977811,
      "latitude_deg": -6.476199858121269e-06,
      "longitude_deg": 0.4103188770417806,
      "height_km": 475.98422637424744,
      "semi_major_axis_km": 6853.380458740495,
      "eccentricity": 0.00013926,
      "inclination_deg": 53.1604,
      "raan_deg": 287.6343,
      "arg_perigee_deg": 80.5191,
      "mean_anomaly_deg": 279.5967,
      "mean_motion_rev_day": 15.30190492
    },
    {
      "epoch": "2026-04-09T19:40:00.886944Z",
      "apogee_km": 475.68161471198437,
      "perigee_km": 474.08897233097105,
      "latitude_deg": 1.123404877839835e-05,
      "longitude_deg": 147.285836963483,
      "height_km": 476.17518603910395,
      "semi_major_axis_km": 6853.022293521478,
      "eccentricity": 0.0001162,
      "inclination_deg": 53.1614,
      "raan_deg": 280.3517,
      "arg_perigee_deg": 119.4303,
      "mean_anomaly_deg": 240.6814,
      "mean_motion_rev_day": 15.30310454
    },
    {
      "epoch": "2026-04-10T05:04:16.693248Z",
      "apogee_km": 475.7307982430684,
      "perigee_km": 473.69139065016043,
      "latitude_deg": 4.70445454248088e-05,
      "longitude_deg": 4.014078416397428,
      "height_km": 475.3450191704377,
      "semi_major_axis_km": 6852.848094446614,
      "eccentricity": 0.0001488,
      "inclination_deg": 53.1591,
      "raan_deg": 278.532,
      "arg_perigee_deg": 75.0019,
      "mean_anomaly_deg": 285.1147,
      "mean_motion_rev_day": 15.30368805
    },
    {
      "epoch": "2026-04-11T20:15:13.347072Z",
      "apogee_km": 475.1535767779942,
      "perigee_km": 473.43909795698437,
      "latitude_deg": -3.362633418539762e-05,
      "longitude_deg": 127.081593369692,
      "height_km": 474.8420489632785,
      "semi_major_axis_km": 6852.433337367489,
      "eccentricity": 0.0001251,
      "inclination_deg": 53.1589,
      "raan_deg": 270.9448,
      "arg_perigee_deg": 65.7156,
      "mean_anomaly_deg": 294.3975,
      "mean_motion_rev_day": 15.3050775
    }
  ]
}